{
  "type": "FeatureCollection",
  "features": [
    {
      "type": "Feature",
      "geometry": {
        "type": "LineString",
        "coordinates": [
          [
            -122.064348,
            37.048112
          ],
          [
            -122.064352,
            37.048044
          ],
          [
            -122.064594,
            37.048469
          ],
          [
            -122.064801,
            37.048795999999996
          ],
          [
            -122.064921,
            37.048984
          ],
          [
            -122.065274,
            37.049296999999996
          ],
          [
            -122.06556,
            37.049519999999994
          ],
          [
            -122.065806,
            37.049681
          ],
          [
            -122.066363,
            37.050024
          ],
          [
            -122.0667,
            37.050224
          ],
          [
            -122.067113,
            37.050470999999995
          ],
          [
            -122.067687,
            37.050841999999996
          ],
          [
            -122.067968,
            37.051024
          ],
          [
            -122.068194,
            37.051151
          ],
          [
            -122.06862,
            37.051362
          ],
          [
            -122.06876,
            37.051406
          ],
          [
            -122.069349,
            37.051597
          ],
          [
            -122.069356,
            37.051598999999996
          ],
          [
            -122.069671,
            37.051708
          ],
          [
            -122.069772,
            37.051742
          ],
          [
            -122.070088,
            37.05184
          ],
          [
            -122.070245,
            37.051885
          ],
          [
            -122.070397,
            37.051927
          ],
          [
            -122.070509,
            37.051961999999996
          ],
          [
            -122.070637,
            37.052001
          ],
          [
            -122.070671,
            37.052012
          ],
          [
            -122.07094,
            37.052101
          ],
          [
            -122.071193,
            37.05218
          ],
          [
            -122.071441,
            37.05226
          ],
          [
            -122.071495,
            37.052318
          ],
          [
            -122.071575,
            37.052343
          ],
          [
            -122.072273,
            37.052578
          ],
          [
            -122.072314,
            37.052595
          ],
          [
            -122.07265,
            37.052730999999994
          ],
          [
            -122.072736,
            37.052783999999996
          ],
          [
            -122.072852,
            37.052873
          ],
          [
            -122.072963,
            37.052926
          ],
          [
            -122.073143,
            37.052997
          ],
          [
            -122.073282,
            37.053005
          ],
          [
            -122.073255,
            37.0529384
          ]
        ]
      },
      "properties": {
        "segment_number": 1,
        "label": "Graham Hill Rd",
        "description": "Graham Hill Rd from the historic rail crossing northeast to the Hwy 9 / Felton Empire Rd intersection, passing Felton Covered Bridge Park",
        "color": "#C0392B",
        "dashed": false,
        "length_mi": 0.627
      }
    },
    {
      "type": "Feature",
      "geometry": {
        "type": "LineString",
        "coordinates": [
          [
            -122.073255,
            37.0529384
          ],
          [
            -122.073282,
            37.05308
          ],
          [
            -122.0733239,
            37.0532475
          ],
          [
            -122.0734224,
            37.0535314
          ],
          [
            -122.0734307,
            37.0535492
          ],
          [
            -122.0734985,
            37.0536868
          ],
          [
            -122.0736759,
            37.0539566
          ],
          [
            -122.0740856,
            37.0545152
          ],
          [
            -122.0744988,
            37.0550773
          ],
          [
            -122.0745102,
            37.0550925
          ],
          [
            -122.0747024,
            37.0553541
          ],
          [
            -122.0747943,
            37.0554711
          ],
          [
            -122.0749126,
            37.0556204
          ],
          [
            -122.0749661,
            37.0556921
          ],
          [
            -122.0752472,
            37.0560687
          ],
          [
            -122.075374,
            37.0562385
          ],
          [
            -122.0760942,
            37.0572026
          ],
          [
            -122.0762519,
            37.0573971
          ],
          [
            -122.0764219,
            37.0575792
          ],
          [
            -122.0766778,
            37.0578037
          ],
          [
            -122.0769336,
            37.0579713
          ],
          [
            -122.0771518,
            37.0580748
          ],
          [
            -122.0773691,
            37.0581723
          ],
          [
            -122.0780472,
            37.0584794
          ],
          [
            -122.0780801,
            37.0584943
          ],
          [
            -122.0784093,
            37.0586372
          ],
          [
            -122.0784611,
            37.0586636
          ],
          [
            -122.0785502,
            37.0587088
          ],
          [
            -122.0786893,
            37.0587868
          ],
          [
            -122.0788928,
            37.0589404
          ],
          [
            -122.0790031,
            37.0590427
          ],
          [
            -122.0791107,
            37.0591586
          ],
          [
            -122.0792634,
            37.0593606
          ],
          [
            -122.0793615,
            37.059557
          ],
          [
            -122.0796441,
            37.0604015
          ]
        ]
      },
      "properties": {
        "segment_number": 2,
        "label": "Hwy 9 \u2014 Caltrans 05-1M400 (in progress)",
        "description": "Hwy 9 west-side shared-use path northbound \u2014 existing Caltrans project 05-1M400 (Felton Empire / Graham Hill Rd to SLV High School entrance)",
        "color": "#E67E22",
        "dashed": false,
        "length_mi": 0.645
      }
    },
    {
      "type": "Feature",
      "geometry": {
        "type": "LineString",
        "coordinates": [
          [
            -122.0797304,
            37.0606156
          ],
          [
            -122.0796441,
            37.0604015
          ],
          [
            -122.0797304,
            37.0606156
          ],
          [
            -122.0798775,
            37.0609781
          ],
          [
            -122.0799362,
            37.0611324
          ],
          [
            -122.0799985,
            37.0612958
          ],
          [
            -122.080023,
            37.0613602
          ],
          [
            -122.080044,
            37.0614828
          ],
          [
            -122.080055,
            37.0616021
          ],
          [
            -122.0800587,
            37.062096
          ],
          [
            -122.0800539,
            37.0624531
          ],
          [
            -122.0800448,
            37.0627912
          ],
          [
            -122.0800349,
            37.0628871
          ],
          [
            -122.0800146,
            37.0629919
          ],
          [
            -122.0799139,
            37.0633181
          ],
          [
            -122.0797301,
            37.0639498
          ],
          [
            -122.0796492,
            37.0643406
          ],
          [
            -122.0795994,
            37.0645836
          ],
          [
            -122.0795888,
            37.0649437
          ],
          [
            -122.0796089,
            37.0652723
          ],
          [
            -122.0796247,
            37.065372
          ],
          [
            -122.0796398,
            37.0654933
          ],
          [
            -122.0796563,
            37.0656295
          ],
          [
            -122.0796638,
            37.0656914
          ],
          [
            -122.0796962,
            37.0659604
          ],
          [
            -122.0797013,
            37.0659925
          ],
          [
            -122.0797394,
            37.0662698
          ],
          [
            -122.0797774,
            37.0665248
          ],
          [
            -122.0798191,
            37.0666557
          ],
          [
            -122.0798308,
            37.0666778
          ],
          [
            -122.0798509,
            37.0667238
          ],
          [
            -122.0799499,
            37.0668741
          ],
          [
            -122.0800188,
            37.0669595
          ],
          [
            -122.080119,
            37.0670486
          ],
          [
            -122.0802376,
            37.0671316
          ],
          [
            -122.0803099,
            37.067176
          ],
          [
            -122.080376,
            37.0672106
          ],
          [
            -122.0804279,
            37.0672341
          ],
          [
            -122.0804829,
            37.0672583
          ],
          [
            -122.0805618,
            37.0672884
          ],
          [
            -122.0806576,
            37.067319
          ],
          [
            -122.0807682,
            37.0673481
          ],
          [
            -122.0810764,
            37.0674296
          ],
          [
            -122.0811707,
            37.067453
          ],
          [
            -122.08127,
            37.0674816
          ],
          [
            -122.0813611,
            37.0675105
          ],
          [
            -122.0814587,
            37.0675438
          ],
          [
            -122.0816623,
            37.067619
          ],
          [
            -122.0822291,
            37.067849
          ],
          [
            -122.082357,
            37.0679022
          ],
          [
            -122.0824573,
            37.0679479
          ],
          [
            -122.0825428,
            37.0679887
          ],
          [
            -122.0826057,
            37.0680219
          ],
          [
            -122.0826533,
            37.0680487
          ],
          [
            -122.082701,
            37.0680798
          ],
          [
            -122.0827556,
            37.0681179
          ],
          [
            -122.0828131,
            37.0681662
          ],
          [
            -122.0834774,
            37.068812
          ],
          [
            -122.0836082,
            37.0689424
          ],
          [
            -122.0836897,
            37.0690316
          ],
          [
            -122.0837687,
            37.0691214
          ],
          [
            -122.083836,
            37.0692049
          ],
          [
            -122.0839176,
            37.0693152
          ],
          [
            -122.0839794,
            37.0694179
          ],
          [
            -122.0840374,
            37.0695252
          ],
          [
            -122.0840874,
            37.0696323
          ],
          [
            -122.0841309,
            37.0697411
          ],
          [
            -122.0841673,
            37.069849
          ],
          [
            -122.0842006,
            37.0699603
          ],
          [
            -122.0842295,
            37.0700905
          ],
          [
            -122.0842535,
            37.07022
          ],
          [
            -122.0842693,
            37.0705272
          ],
          [
            -122.0842385,
            37.0708692
          ],
          [
            -122.0841809,
            37.0711988
          ],
          [
            -122.084146,
            37.0714298
          ],
          [
            -122.0841515,
            37.0716452
          ],
          [
            -122.0841517,
            37.0716561
          ],
          [
            -122.0841603,
            37.0717016
          ],
          [
            -122.0842082,
            37.0719575
          ],
          [
            -122.0842734,
            37.0722305
          ],
          [
            -122.0843293,
            37.0724884
          ],
          [
            -122.0843906,
            37.0728172
          ],
          [
            -122.0844164,
            37.0729654
          ],
          [
            -122.0844248,
            37.0730079
          ],
          [
            -122.0844438,
            37.0731648
          ],
          [
            -122.0844901,
            37.0735349
          ],
          [
            -122.0845097,
            37.0737314
          ],
          [
            -122.0845202,
            37.0739594
          ],
          [
            -122.0845198,
            37.0741252
          ],
          [
            -122.0845168,
            37.0742743
          ],
          [
            -122.084475,
            37.0748424
          ],
          [
            -122.084398,
            37.0757328
          ],
          [
            -122.0843761,
            37.0758443
          ],
          [
            -122.0843143,
            37.0760252
          ],
          [
            -122.0842713,
            37.076222
          ],
          [
            -122.0842634,
            37.0763612
          ],
          [
            -122.0842862,
            37.0765273
          ],
          [
            -122.0843276,
            37.0766787
          ],
          [
            -122.084355,
            37.0768405
          ],
          [
            -122.0843547,
            37.076931
          ],
          [
            -122.084326,
            37.0770435
          ],
          [
            -122.0842795,
            37.077145
          ],
          [
            -122.0841251,
            37.0774006
          ],
          [
            -122.0840617,
            37.0775025
          ],
          [
            -122.0839756,
            37.0776018
          ],
          [
            -122.0838906,
            37.0776726
          ],
          [
            -122.0838205,
            37.0777155
          ],
          [
            -122.0836503,
            37.0778045
          ],
          [
            -122.0835123,
            37.0778847
          ],
          [
            -122.0834141,
            37.077967
          ],
          [
            -122.0833126,
            37.0780745
          ],
          [
            -122.083235,
            37.0781962
          ],
          [
            -122.0831762,
            37.0783319
          ],
          [
            -122.0831511,
            37.0784746
          ],
          [
            -122.0831614,
            37.0786112
          ],
          [
            -122.083197,
            37.0787433
          ],
          [
            -122.0834123,
            37.0792466
          ],
          [
            -122.0834655,
            37.079371
          ]
        ]
      },
      "properties": {
        "segment_number": 3,
        "label": "Hwy 9 to Highlands Park",
        "description": "Hwy 9 west-side path continuing north from SLV High School to the Highlands County Park entrance",
        "color": "#F1C40F",
        "dashed": false,
        "length_mi": 1.482
      }
    },
    {
      "type": "Feature",
      "geometry": {
        "type": "LineString",
        "coordinates": [
          [
            -122.08346,
            37.079357
          ],
          [
            -122.083466,
            37.079371
          ],
          [
            -122.083367,
            37.079393
          ],
          [
            -122.083173,
            37.079459
          ],
          [
            -122.083136,
            37.07955
          ],
          [
            -122.083217,
            37.079651
          ],
          [
            -122.083364,
            37.079832
          ],
          [
            -122.083362,
            37.079973
          ],
          [
            -122.083325,
            37.080199
          ],
          [
            -122.083271,
            37.080312
          ],
          [
            -122.083166,
            37.080373
          ],
          [
            -122.082594,
            37.080706
          ],
          [
            -122.082383,
            37.080831
          ],
          [
            -122.082185,
            37.080722
          ],
          [
            -122.082129,
            37.080661
          ],
          [
            -122.081929,
            37.080396
          ],
          [
            -122.081542,
            37.080561
          ],
          [
            -122.081375,
            37.08071
          ],
          [
            -122.081164,
            37.08078
          ],
          [
            -122.080925,
            37.080787
          ],
          [
            -122.080086,
            37.081497
          ]
        ]
      },
      "properties": {
        "segment_number": 4,
        "label": "Highlands County Park \u2014 park path to river",
        "description": "Highlands County Park: park path from the Hwy 9 entrance to the San Lorenzo River bank",
        "color": "#27AE60",
        "dashed": false,
        "length_mi": 0.314
      }
    },
    {
      "type": "Feature",
      "geometry": {
        "type": "LineString",
        "coordinates": [
          [
            -122.07952,
            37.081913
          ],
          [
            -122.079009,
            37.081911
          ],
          [
            -122.078093,
            37.081919
          ],
          [
            -122.077975,
            37.081464
          ],
          [
            -122.077904,
            37.081237
          ],
          [
            -122.077869,
            37.081125
          ],
          [
            -122.077662,
            37.080454
          ],
          [
            -122.077615,
            37.080243
          ],
          [
            -122.077601,
            37.080084
          ],
          [
            -122.077592,
            37.079924
          ],
          [
            -122.07761,
            37.079749
          ],
          [
            -122.077639,
            37.079601
          ],
          [
            -122.077706,
            37.079382
          ],
          [
            -122.077799,
            37.079196
          ],
          [
            -122.077643,
            37.079055
          ],
          [
            -122.07747,
            37.078983
          ]
        ]
      },
      "properties": {
        "segment_number": 5,
        "label": "Maple Ave and Glen Arbor Rd",
        "description": "Maple Ave north from the bridge east landing to the Glen Arbor Rd junction",
        "color": "#2980B9",
        "dashed": false,
        "length_mi": 0.295
      }
    },
    {
      "type": "Feature",
      "geometry": {
        "type": "LineString",
        "coordinates": [
          [
            -122.07747,
            37.078983
          ],
          [
            -122.077393,
            37.079039
          ],
          [
            -122.077164,
            37.079216
          ],
          [
            -122.077033,
            37.079436
          ],
          [
            -122.076472,
            37.080401
          ],
          [
            -122.0764,
            37.080666
          ],
          [
            -122.076395,
            37.081299
          ],
          [
            -122.076392,
            37.081704
          ],
          [
            -122.076357,
            37.082126
          ],
          [
            -122.07629,
            37.082348
          ],
          [
            -122.076158,
            37.082545
          ],
          [
            -122.075982,
            37.082653
          ],
          [
            -122.07585,
            37.082682
          ],
          [
            -122.075721,
            37.082649
          ],
          [
            -122.073813,
            37.081778
          ],
          [
            -122.073478,
            37.081601
          ],
          [
            -122.073258,
            37.081439
          ],
          [
            -122.07307,
            37.081348
          ],
          [
            -122.072886,
            37.081289
          ],
          [
            -122.072626,
            37.081284
          ],
          [
            -122.072146,
            37.081387
          ],
          [
            -122.07182,
            37.081477
          ],
          [
            -122.070614,
            37.081565
          ],
          [
            -122.070166,
            37.081621
          ],
          [
            -122.069927,
            37.081694
          ],
          [
            -122.06976,
            37.081817
          ],
          [
            -122.06966,
            37.081935
          ],
          [
            -122.069623,
            37.082092
          ],
          [
            -122.069619,
            37.082215
          ],
          [
            -122.06961,
            37.082523
          ],
          [
            -122.069523,
            37.082702
          ],
          [
            -122.069122,
            37.082986
          ],
          [
            -122.068865,
            37.083157
          ],
          [
            -122.068628,
            37.083349
          ],
          [
            -122.068435,
            37.083505
          ],
          [
            -122.068073,
            37.083893
          ],
          [
            -122.067923,
            37.084091
          ],
          [
            -122.067893,
            37.084191
          ],
          [
            -122.067894,
            37.084298
          ],
          [
            -122.068151,
            37.084633
          ],
          [
            -122.068239,
            37.084738
          ],
          [
            -122.068288,
            37.084919
          ],
          [
            -122.068312,
            37.085069
          ],
          [
            -122.068141,
            37.08534
          ],
          [
            -122.06787,
            37.085569
          ],
          [
            -122.067523,
            37.085758
          ],
          [
            -122.06736,
            37.085837
          ],
          [
            -122.067169,
            37.085867
          ],
          [
            -122.066939,
            37.085858
          ],
          [
            -122.066659,
            37.085784
          ],
          [
            -122.066047,
            37.085583
          ],
          [
            -122.065198,
            37.08522
          ],
          [
            -122.064831,
            37.084951
          ],
          [
            -122.064645,
            37.084764
          ],
          [
            -122.064557,
            37.084533
          ],
          [
            -122.064303,
            37.083273
          ],
          [
            -122.064246,
            37.082966
          ],
          [
            -122.064098,
            37.08262
          ],
          [
            -122.063959,
            37.082331
          ],
          [
            -122.063779,
            37.082032
          ],
          [
            -122.063532,
            37.08167
          ],
          [
            -122.063137,
            37.081347
          ],
          [
            -122.062825,
            37.080782
          ],
          [
            -122.062625,
            37.080459
          ],
          [
            -122.062276,
            37.080135
          ],
          [
            -122.061721,
            37.079869
          ],
          [
            -122.061244,
            37.079708
          ],
          [
            -122.060823,
            37.079481
          ],
          [
            -122.059621,
            37.078676
          ],
          [
            -122.059147,
            37.078393
          ],
          [
            -122.058899,
            37.078199
          ],
          [
            -122.058659,
            37.077947
          ],
          [
            -122.057985,
            37.077143
          ],
          [
            -122.055753,
            37.074555
          ],
          [
            -122.055733,
            37.07453
          ],
          [
            -122.055647,
            37.074476
          ],
          [
            -122.055283,
            37.074312
          ],
          [
            -122.055214,
            37.074283
          ],
          [
            -122.055422,
            37.074077
          ],
          [
            -122.055563,
            37.073925
          ],
          [
            -122.055066,
            37.073757
          ],
          [
            -122.054541,
            37.07358
          ],
          [
            -122.054235,
            37.073531
          ],
          [
            -122.053984,
            37.07354
          ],
          [
            -122.053741,
            37.073662
          ],
          [
            -122.053644,
            37.073675
          ],
          [
            -122.053642,
            37.073675
          ]
        ]
      },
      "properties": {
        "segment_number": 6,
        "label": "Quail Hollow Rd",
        "description": "Glen Arbor Rd east from Maple Ave, then Quail Hollow Rd south to the Olympia Station Rd / Olympia Watershed trail entrance",
        "color": "#4B0082",
        "dashed": false,
        "length_mi": 2.241
      }
    },
    {
      "type": "Feature",
      "geometry": {
        "type": "LineString",
        "coordinates": [
          [
            -122.053644,
            37.073675
          ],
          [
            -122.053844,
            37.073482
          ],
          [
            -122.053995,
            37.073313
          ],
          [
            -122.054172,
            37.073082
          ],
          [
            -122.054367,
            37.072784
          ],
          [
            -122.054426,
            37.072685
          ],
          [
            -122.054481,
            37.07257
          ],
          [
            -122.05457,
            37.072346
          ],
          [
            -122.054606,
            37.072233
          ],
          [
            -122.054643,
            37.07212
          ],
          [
            -122.054694,
            37.071891
          ],
          [
            -122.054794,
            37.071384
          ],
          [
            -122.054935,
            37.0707
          ],
          [
            -122.054995,
            37.070438
          ],
          [
            -122.055068,
            37.070253
          ],
          [
            -122.055153,
            37.070073
          ],
          [
            -122.055226,
            37.06994
          ],
          [
            -122.055316,
            37.069809
          ],
          [
            -122.055515,
            37.069571
          ],
          [
            -122.055898,
            37.069123
          ],
          [
            -122.056135,
            37.068849
          ],
          [
            -122.056297,
            37.068642
          ],
          [
            -122.056364,
            37.068536
          ],
          [
            -122.056427,
            37.068421
          ],
          [
            -122.056472,
            37.068311
          ],
          [
            -122.056508,
            37.0682
          ],
          [
            -122.056528,
            37.068094
          ],
          [
            -122.056541,
            37.067997
          ],
          [
            -122.056544,
            37.067838
          ],
          [
            -122.056531,
            37.067696
          ],
          [
            -122.056506,
            37.067549
          ],
          [
            -122.056426,
            37.067288
          ],
          [
            -122.056232,
            37.066761
          ],
          [
            -122.056137,
            37.066521
          ],
          [
            -122.056049,
            37.066289
          ],
          [
            -122.056006,
            37.066137
          ],
          [
            -122.055984,
            37.066034
          ],
          [
            -122.055969,
            37.065929
          ],
          [
            -122.055965,
            37.065807
          ],
          [
            -122.055962,
            37.06574
          ],
          [
            -122.055964,
            37.065674
          ],
          [
            -122.055984,
            37.065329
          ],
          [
            -122.055996,
            37.065017
          ],
          [
            -122.055997,
            37.064931
          ],
          [
            -122.05599,
            37.064839
          ],
          [
            -122.055972,
            37.064707
          ],
          [
            -122.055945,
            37.06454
          ],
          [
            -122.055939,
            37.064515
          ],
          [
            -122.055903,
            37.064372
          ],
          [
            -122.055881,
            37.064289
          ],
          [
            -122.055851,
            37.064206
          ],
          [
            -122.055773,
            37.064038
          ],
          [
            -122.055702,
            37.063879
          ],
          [
            -122.055544,
            37.063564
          ],
          [
            -122.055457,
            37.063361
          ],
          [
            -122.055427,
            37.063264
          ],
          [
            -122.055401,
            37.063167
          ],
          [
            -122.055362,
            37.062939
          ],
          [
            -122.055351,
            37.062758
          ],
          [
            -122.055364,
            37.062593
          ],
          [
            -122.055392,
            37.062433
          ],
          [
            -122.055433,
            37.062287
          ],
          [
            -122.055512,
            37.062072
          ],
          [
            -122.0556,
            37.061873
          ],
          [
            -122.055679,
            37.061737
          ],
          [
            -122.055792,
            37.061571
          ],
          [
            -122.055914,
            37.061407
          ],
          [
            -122.05613,
            37.061183
          ],
          [
            -122.056416,
            37.06096
          ],
          [
            -122.056923,
            37.060603
          ],
          [
            -122.057086,
            37.060516
          ],
          [
            -122.057251,
            37.060411
          ],
          [
            -122.057403,
            37.060289
          ],
          [
            -122.057537,
            37.060167
          ],
          [
            -122.057743,
            37.059952
          ],
          [
            -122.058145,
            37.059495
          ],
          [
            -122.058599,
            37.058982
          ],
          [
            -122.058729,
            37.058832
          ],
          [
            -122.059046,
            37.058405
          ],
          [
            -122.059322,
            37.057977
          ],
          [
            -122.059597,
            37.057546
          ],
          [
            -122.060051,
            37.056852
          ],
          [
            -122.060381,
            37.056297
          ],
          [
            -122.060543,
            37.055888
          ],
          [
            -122.060646,
            37.055572
          ],
          [
            -122.060742,
            37.055138
          ],
          [
            -122.060801,
            37.054909
          ],
          [
            -122.06088,
            37.0547
          ],
          [
            -122.061012,
            37.054471
          ],
          [
            -122.061092,
            37.05436
          ],
          [
            -122.061178,
            37.054253
          ],
          [
            -122.061349,
            37.054082
          ],
          [
            -122.061829,
            37.053632
          ],
          [
            -122.062274,
            37.053148
          ],
          [
            -122.0628,
            37.052251
          ],
          [
            -122.063266,
            37.051449
          ],
          [
            -122.063396,
            37.051211
          ],
          [
            -122.063526,
            37.050973
          ],
          [
            -122.064002,
            37.050139
          ],
          [
            -122.064062,
            37.050043
          ],
          [
            -122.064111,
            37.04995
          ],
          [
            -122.064143,
            37.049884
          ],
          [
            -122.064222,
            37.04972
          ],
          [
            -122.064286,
            37.049566
          ],
          [
            -122.064336,
            37.049352
          ],
          [
            -122.064363,
            37.049216
          ],
          [
            -122.064382,
            37.049094
          ],
          [
            -122.064383,
            37.049007
          ],
          [
            -122.064352,
            37.048119
          ]
        ]
      },
      "properties": {
        "segment_number": 7,
        "label": "Historic SP Olympia Branch (proposed rail trail)",
        "description": "Historic Southern Pacific / Santa Cruz, Big Trees & Pacific Railway Olympia Branch alignment \u2014 proposed rail trail southwest to the Graham Hill Rd crossing",
        "color": "#8E44AD",
        "dashed": false,
        "length_mi": 1.955
      }
    },
    {
      "type": "Feature",
      "geometry": {
        "type": "LineString",
        "coordinates": [
          [
            -122.073255,
            37.052938
          ],
          [
            -122.073241,
            37.052829
          ],
          [
            -122.073219,
            37.052675
          ],
          [
            -122.073214,
            37.052476
          ],
          [
            -122.073236,
            37.052103
          ],
          [
            -122.073243,
            37.052008
          ],
          [
            -122.073251,
            37.051758
          ],
          [
            -122.073253,
            37.05167
          ],
          [
            -122.073269,
            37.051302
          ],
          [
            -122.073271,
            37.051204
          ],
          [
            -122.073272,
            37.051147
          ],
          [
            -122.07328,
            37.050881
          ],
          [
            -122.073282,
            37.050834
          ],
          [
            -122.073287,
            37.050695
          ],
          [
            -122.073293,
            37.050515
          ],
          [
            -122.073295,
            37.050456
          ],
          [
            -122.073297,
            37.050403
          ],
          [
            -122.073299,
            37.050327
          ],
          [
            -122.073309,
            37.050032
          ],
          [
            -122.073314,
            37.049842
          ],
          [
            -122.073317,
            37.049805
          ],
          [
            -122.073322,
            37.049675
          ],
          [
            -122.073323,
            37.049606
          ],
          [
            -122.073324,
            37.049566
          ],
          [
            -122.073325,
            37.049512
          ],
          [
            -122.073341,
            37.049099
          ],
          [
            -122.073342,
            37.04908
          ],
          [
            -122.073345,
            37.048984
          ],
          [
            -122.073354,
            37.048643
          ],
          [
            -122.073359,
            37.048507
          ],
          [
            -122.073366,
            37.0483
          ],
          [
            -122.073372,
            37.048102
          ],
          [
            -122.073379,
            37.047861
          ],
          [
            -122.073379,
            37.04785
          ],
          [
            -122.073379,
            37.047842
          ],
          [
            -122.073388,
            37.047471
          ],
          [
            -122.073393,
            37.047249
          ],
          [
            -122.073399,
            37.047042
          ],
          [
            -122.073406,
            37.046818
          ],
          [
            -122.07341,
            37.046658
          ],
          [
            -122.073424,
            37.046411
          ],
          [
            -122.073445,
            37.046022
          ],
          [
            -122.073446,
            37.04598
          ],
          [
            -122.073455,
            37.045729
          ],
          [
            -122.073435,
            37.045411
          ],
          [
            -122.073425,
            37.045285
          ],
          [
            -122.073387,
            37.045151
          ],
          [
            -122.073314,
            37.044935
          ],
          [
            -122.073222,
            37.044698
          ],
          [
            -122.073144,
            37.044492
          ],
          [
            -122.072992,
            37.044077
          ],
          [
            -122.072916,
            37.043894
          ],
          [
            -122.072887,
            37.043812
          ],
          [
            -122.072821,
            37.043563
          ],
          [
            -122.072791,
            37.04332
          ],
          [
            -122.072705,
            37.042318
          ],
          [
            -122.072698,
            37.042226
          ],
          [
            -122.072683,
            37.042122
          ],
          [
            -122.072653,
            37.041992
          ],
          [
            -122.072622,
            37.041858
          ],
          [
            -122.072556,
            37.041714
          ],
          [
            -122.072204,
            37.041118
          ],
          [
            -122.072038,
            37.040835
          ],
          [
            -122.071962,
            37.040734
          ],
          [
            -122.071874,
            37.040634
          ],
          [
            -122.071732,
            37.040491
          ],
          [
            -122.071584,
            37.040375
          ],
          [
            -122.07108,
            37.040063
          ],
          [
            -122.070344,
            37.039653
          ],
          [
            -122.070167,
            37.039529
          ],
          [
            -122.069733,
            37.039189
          ],
          [
            -122.069402,
            37.038957
          ],
          [
            -122.069174,
            37.038833
          ],
          [
            -122.068933,
            37.038743
          ],
          [
            -122.068111,
            37.038505
          ],
          [
            -122.06795,
            37.03845
          ],
          [
            -122.067795,
            37.038391
          ],
          [
            -122.067654,
            37.038325
          ],
          [
            -122.067376,
            37.03816
          ],
          [
            -122.067236,
            37.038057
          ],
          [
            -122.066662,
            37.037607
          ],
          [
            -122.066373,
            37.037318
          ],
          [
            -122.066149,
            37.037093
          ],
          [
            -122.066089,
            37.037033
          ],
          [
            -122.065839,
            37.036776
          ],
          [
            -122.06571,
            37.036644
          ],
          [
            -122.06552,
            37.036341
          ],
          [
            -122.065295,
            37.035962
          ],
          [
            -122.06517,
            37.035791
          ],
          [
            -122.065042,
            37.035571
          ],
          [
            -122.064883,
            37.035457
          ],
          [
            -122.064708,
            37.035294
          ],
          [
            -122.064325,
            37.034936
          ],
          [
            -122.064295,
            37.034894
          ],
          [
            -122.064198,
            37.034751
          ],
          [
            -122.064122,
            37.034602
          ],
          [
            -122.064039,
            37.034379
          ],
          [
            -122.063939,
            37.034113
          ],
          [
            -122.063817,
            37.033955
          ],
          [
            -122.063673,
            37.033798
          ],
          [
            -122.063516,
            37.033663
          ],
          [
            -122.063436,
            37.033602
          ],
          [
            -122.063359,
            37.033542
          ],
          [
            -122.063274,
            37.03348
          ],
          [
            -122.062873,
            37.033114
          ],
          [
            -122.062819,
            37.033036
          ],
          [
            -122.062782,
            37.032958
          ],
          [
            -122.062767,
            37.032882
          ],
          [
            -122.062764,
            37.03281
          ],
          [
            -122.06277,
            37.032774
          ],
          [
            -122.062777,
            37.032735
          ],
          [
            -122.062795,
            37.032685
          ],
          [
            -122.06282,
            37.03264
          ],
          [
            -122.062848,
            37.032606
          ],
          [
            -122.062881,
            37.032571
          ],
          [
            -122.062973,
            37.032489
          ],
          [
            -122.063063,
            37.03243
          ],
          [
            -122.063155,
            37.032371
          ],
          [
            -122.06327,
            37.032311
          ],
          [
            -122.063391,
            37.032254
          ],
          [
            -122.06383,
            37.0321
          ],
          [
            -122.064352,
            37.031951
          ],
          [
            -122.064499,
            37.031933
          ],
          [
            -122.064641,
            37.031918
          ],
          [
            -122.064847,
            37.031899
          ],
          [
            -122.064933,
            37.031885
          ],
          [
            -122.06497,
            37.031876
          ],
          [
            -122.065006,
            37.031865
          ],
          [
            -122.065068,
            37.03184
          ],
          [
            -122.065116,
            37.031812
          ],
          [
            -122.06517,
            37.031765
          ],
          [
            -122.06519,
            37.03174
          ],
          [
            -122.065206,
            37.031712
          ]
        ]
      },
      "properties": {
        "branch_number": 1,
        "label": "Hwy 9 Bike Lanes",
        "description": "Proposed Class II bike lanes along Hwy 9, from Graham Hill Rd to Glengarry Rd.",
        "color": "#808080",
        "bikeway_class": "Class II",
        "dashed": true,
        "length_mi": 1.789
      }
    },
    {
      "type": "Feature",
      "geometry": {
        "type": "LineString",
        "coordinates": [
          [
            -122.078093,
            37.081919
          ],
          [
            -122.078168,
            37.082178
          ],
          [
            -122.078245,
            37.082423
          ],
          [
            -122.078334,
            37.082629
          ],
          [
            -122.078418,
            37.082751
          ],
          [
            -122.078518,
            37.082863
          ],
          [
            -122.078659,
            37.083
          ],
          [
            -122.078792,
            37.083115
          ],
          [
            -122.078943,
            37.083217
          ],
          [
            -122.079112,
            37.083312
          ],
          [
            -122.079266,
            37.083378
          ],
          [
            -122.079419,
            37.083431
          ],
          [
            -122.079561,
            37.083463
          ],
          [
            -122.080919,
            37.083673
          ],
          [
            -122.081536,
            37.083798
          ],
          [
            -122.081882,
            37.083869
          ],
          [
            -122.082024,
            37.083898
          ],
          [
            -122.082161,
            37.083947
          ],
          [
            -122.082297,
            37.084009
          ],
          [
            -122.082354,
            37.084041
          ],
          [
            -122.08242,
            37.084078
          ],
          [
            -122.082509,
            37.084146
          ],
          [
            -122.082737,
            37.084351
          ],
          [
            -122.082901,
            37.084587
          ],
          [
            -122.082995,
            37.084771
          ],
          [
            -122.083255,
            37.085372
          ],
          [
            -122.083288,
            37.085446
          ],
          [
            -122.083432,
            37.085767
          ],
          [
            -122.083881,
            37.086688
          ],
          [
            -122.083952,
            37.086833
          ],
          [
            -122.083977,
            37.086885
          ],
          [
            -122.084329,
            37.087557
          ],
          [
            -122.0848,
            37.088369
          ],
          [
            -122.084865,
            37.088438
          ],
          [
            -122.084933,
            37.088481
          ],
          [
            -122.085006,
            37.08851
          ],
          [
            -122.08509,
            37.08854
          ],
          [
            -122.086499,
            37.088991
          ],
          [
            -122.086605,
            37.08902
          ],
          [
            -122.086715,
            37.089031
          ],
          [
            -122.086847,
            37.089029
          ],
          [
            -122.086946,
            37.089019
          ],
          [
            -122.087046,
            37.089002
          ],
          [
            -122.087388,
            37.088899
          ],
          [
            -122.08768,
            37.088841
          ],
          [
            -122.087874,
            37.088802
          ],
          [
            -122.087899,
            37.088798
          ],
          [
            -122.088001,
            37.088784
          ],
          [
            -122.088099,
            37.088777
          ],
          [
            -122.088196,
            37.088776
          ],
          [
            -122.088275,
            37.088784
          ],
          [
            -122.088494,
            37.088805
          ]
        ]
      },
      "properties": {
        "branch_number": 2,
        "label": "Glen Arbor Rd Bike Lanes",
        "description": "Proposed Class II bike lanes along Glen Arbor Rd, corrected start point, to Hwy 9 (Ben Lomond).",
        "color": "#808080",
        "bikeway_class": "Class II",
        "dashed": true,
        "length_mi": 0.85
      }
    },
    {
      "type": "Feature",
      "geometry": {
        "type": "LineString",
        "coordinates": [
          [
            -122.073282,
            37.05308
          ],
          [
            -122.073417,
            37.053092
          ],
          [
            -122.073583,
            37.053098
          ],
          [
            -122.073685,
            37.053102
          ],
          [
            -122.074103,
            37.053118
          ],
          [
            -122.074456,
            37.053104
          ],
          [
            -122.074639,
            37.053084
          ],
          [
            -122.07497,
            37.052994
          ],
          [
            -122.075034,
            37.052965
          ],
          [
            -122.075816,
            37.052618
          ],
          [
            -122.075982,
            37.052544
          ],
          [
            -122.076633,
            37.052235
          ],
          [
            -122.077064,
            37.05203
          ],
          [
            -122.077759,
            37.051719
          ],
          [
            -122.078765,
            37.051269
          ],
          [
            -122.078972,
            37.051173
          ],
          [
            -122.079302,
            37.051018
          ],
          [
            -122.079886,
            37.050746
          ],
          [
            -122.080068,
            37.050671
          ],
          [
            -122.080765,
            37.050385
          ],
          [
            -122.081428,
            37.050113
          ],
          [
            -122.082116,
            37.049752
          ],
          [
            -122.082737,
            37.049402
          ],
          [
            -122.08298,
            37.049304
          ],
          [
            -122.08321,
            37.049247
          ],
          [
            -122.083433,
            37.049206
          ],
          [
            -122.083711,
            37.049177
          ],
          [
            -122.083995,
            37.049146
          ]
        ]
      },
      "properties": {
        "branch_number": 3,
        "label": "Felton Empire Rd Multi-Use Path",
        "description": "Proposed multi-use path along Felton Empire Rd, from Hwy 9 to Fetherston Way.",
        "color": "#808080",
        "bikeway_class": "Class I",
        "dashed": true,
        "length_mi": 0.662
      }
    },
    {
      "type": "Feature",
      "geometry": {
        "type": "LineString",
        "coordinates": [
          [
            -122.080086,
            37.081497
          ],
          [
            -122.079521,
            37.08189
          ]
        ]
      },
      "properties": {
        "kind": "bridge",
        "label": "Proposed Pedestrian / Bicycle Bridge",
        "description": "Proposed pedestrian and bicycle bridge across the San Lorenzo River (2-point straight-line placeholder)",
        "color": "#795548",
        "dashed": true,
        "length_mi": 0.041
      }
    },
    {
      "type": "Feature",
      "geometry": {
        "type": "Point",
        "coordinates": [
          -122.070662,
          37.051935
        ]
      },
      "properties": {
        "name": "Felton Covered Bridge Park",
        "description": "Historic 1892 covered bridge over the San Lorenzo River. Key landmark on the Graham Hill Rd segment."
      }
    },
    {
      "type": "Feature",
      "geometry": {
        "type": "Point",
        "coordinates": [
          -122.0796441,
          37.0604015
        ]
      },
      "properties": {
        "name": "SLV High School (Hwy 9 entrance)",
        "description": "San Lorenzo Valley High School \u2014 Hwy 9 driveway entrance. End of Caltrans 05-1M400 project segment."
      }
    },
    {
      "type": "Feature",
      "geometry": {
        "type": "Point",
        "coordinates": [
          -122.082839,
          37.0805
        ]
      },
      "properties": {
        "name": "Highlands County Park",
        "description": "Highlands County Park. Park path leads from the Hwy 9 entrance to the proposed river crossing."
      }
    },
    {
      "type": "Feature",
      "geometry": {
        "type": "Point",
        "coordinates": [
          -122.063464,
          37.082358
        ]
      },
      "properties": {
        "name": "Quail Hollow Ranch County Park",
        "description": "Quail Hollow Ranch County Park \u2014 on-loop access from Quail Hollow Rd."
      }
    },
    {
      "type": "Feature",
      "geometry": {
        "type": "Point",
        "coordinates": [
          -122.05537,
          37.069449
        ]
      },
      "properties": {
        "name": "Olympia Watershed (trail entrance)",
        "description": "Olympia Watershed trail entrance / start of the historic SP Olympia Branch rail trail segment."
      }
    }
  ]
}